STARLINK-37628          
1 69823U 26154E   26192.16668980 -.01593461  76408-3 -33131-2 0  9992
2 69823  53.1594 313.4424 0000810  68.7593 246.0738 15.98524528  2028
STARLINK-37695          
1 69824U 26154F   26192.16668980 -.01604963  77538-3 -33124-2 0  9990
2 69824  53.1594 313.4379 0000705  70.2818 246.7883 15.98658667  2029
STARLINK-37690          
1 69825U 26154G   26192.16668980 -.01592477  76525-3 -32652-2 0  9997
2 69825  53.1593 313.4341 0000761  70.8005 248.1148 15.98772864  2020
STARLINK-37710          
1 69826U 26154H   26192.16668980 -.01602406  77517-3 -32613-2 0  9991
2 69826  53.1592 313.4294 0000766  70.6087 250.5082 15.98906109  2025
STARLINK-38031          
1 69827U 26154J   26192.16668980 -.01599378  77342-3 -32342-2 0  9990
2 69827  53.1593 313.4250 0000693  70.2517 252.8738 15.99019708  2026
STARLINK-38001          
1 69828U 26154K   26192.16668980 -.01598187  77333-3 -32107-2 0  9997
2 69828  53.1592 313.4211 0000716  72.0083 253.0771 15.99135778  2023
STARLINK-37622          
1 69829U 26154L   26192.16668980 -.01600676  77654-3 -31944-2 0  9999
2 69829  53.1591 313.4170 0000787  71.1242 255.9539 15.99253212  2029
STARLINK-37621          
1 69830U 26154M   26192.16668980 -.01592233  76994-3 -31573-2 0  9994
2 69830  53.1591 313.4134 0000776  68.2718 260.5519 15.99364570  2024
STARLINK-37918          
1 69831U 26154N   26192.16668980 -.01598114  77618-3 -31481-2 0  9991
2 69831  53.1592 313.4097 0000800  67.2030 263.3292 15.99481880  2021
STARLINK-37887          
1 69832U 26154P   26192.16668980 -.01590183  77001-3 -31130-2 0  9997
2 69832  53.1592 313.4064 0000737  71.0183 261.2020 15.99590603  2027
STARLINK-37624          
1 69833U 26154Q   26192.16668980 -.01595771  77601-3 -31030-2 0  9991
2 69833  53.1591 313.4017 0000730  68.0716 266.4634 15.99709796  2029
STARLINK-37769          
1 69834U 26154R   26192.16668980 -.01603256  78375-3 -30965-2 0  9995
2 69834  53.1590 313.3972 0000809  70.2557 266.4223 15.99829459  2026
STARLINK-37247          
1 69835U 26154S   26192.16668980 -.01609676  79057-3 -30883-2 0  9995
2 69835  53.1590 313.3930 0000748  63.5389 275.1842 15.99947064  2129
STARLINK-37569          
1 69836U 26154T   26192.16668980 -.01594011  77733-3 -30398-2 0  9992
2 69836  53.1589 313.3896 0000709  68.4091 271.9744 16.00050854  2029
STARLINK-37587          
1 69837U 26154U   26192.16668980 -.01611625  79434-3 -30517-2 0  9997
2 69837  53.1589 313.3843 0000554  69.5153 273.3476 16.00177077  1991
STARLINK-37590          
1 69838U 26154V   26192.16668980 -.01606996  79108-3 -30241-2 0  9995
2 69838  53.1589 313.3805 0000541  73.2776 271.4948 16.00284969  1867
STARLINK-37589          
1 69839U 26154W   26192.16668980 -.01622349  80616-3 -30320-2 0  9990
2 69839  53.1588 313.3761 0000598  72.6658 274.2347 16.00407189  1991
STARLINK-37487          
1 69840U 26154X   26192.16668980 -.01276268  54975-3 -17630-2 0  9995
2 69840  53.1587 313.2575 0000638  60.6779 342.6562 16.05437192  1991
STARLINK-37433          
1 69841U 26154Y   26192.16668980 -.01298563  56890-3 -17696-2 0  9998
2 69841  53.1586 313.2487 0000726  62.1629 345.3845 16.05661244  2129
STARLINK-37588          
1 69842U 26154Z   26192.16668980 -.01328745  59506-3 -17832-2 0  9994
2 69842  53.1586 313.2393 0000697  61.5820 350.4689 16.05913504  2020
STARLINK-37579          
1 69843U 26154AA  26192.16668980 -.01337833  60503-3 -17569-2 0  9999
2 69843  53.1585 313.2266 0000753  59.3869 358.6631 16.06264248  2022
STARLINK-37584          
1 69844U 26154AB  26192.16668980 -.01342750  61046-3 -17432-2 0  9996
2 69844  53.1587 313.2187 0000769  57.8255   3.8917 16.06449571  2026
STARLINK-37606          
1 69845U 26154AC  26192.16668980 -.01371261  63636-3 -17523-2 0  9994
2 69845  53.1585 313.2096 0000856  59.2072   6.8926 16.06706847  2029
STARLINK-37603          
1 69846U 26154AD  26192.16668980 -.01383268  64910-3 -17329-2 0  9995
2 69846  53.1587 313.1984 0000806  62.8959   8.4600 16.07025913  2022
STARLINK-37595          
1 69847U 26154AE  26192.16668980 -.01381582  64902-3 -17118-2 0  9990
2 69847  53.1585 313.1902 0000790  58.9549  16.1925 16.07200354  2024
2026-158A               
1 69972U 26158A   26192.20041824 -.00000104  00000+0  23708-4 0  9995
2 69972  49.9854 297.2778 0004947 288.0407  71.9967 14.25146648   133
2026-158B               
1 69973U 26158B   26192.20059846 -.00000106  00000+0  22777-4 0  9996
2 69973  49.9857 297.2778 0005703 298.9027  61.1314 14.24885391   137
CZ-10B R/B              
1 69974U 26158C   26191.83284742  .00000207  00000+0  64180-4 0  9995
2 69974  49.9651 298.6353 0197627 184.6042 175.3074 14.64294088    85
