OBJECT_NAME,OBJECT_ID,EPOCH,MEAN_MOTION,ECCENTRICITY,INCLINATION,RA_OF_ASC_NODE,ARG_OF_PERICENTER,MEAN_ANOMALY,EPHEMERIS_TYPE,CLASSIFICATION_TYPE,NORAD_CAT_ID,ELEMENT_SET_NO,REV_AT_EPOCH,BSTAR,MEAN_MOTION_DOT,MEAN_MOTION_DDOT
STARLINK-37628,2026-154E,2026-07-11T04:00:01.998720,15.98524528,.000081,53.1594,313.4424,68.7593,246.0738,0,U,69823,999,202,-.33131E-2,-.1593461E-1,.76408E-3
STARLINK-37695,2026-154F,2026-07-11T04:00:01.998720,15.98658667,.0000705,53.1594,313.4379,70.2818,246.7883,0,U,69824,999,202,-.33124E-2,-.1604963E-1,.77538E-3
STARLINK-37690,2026-154G,2026-07-11T04:00:01.998720,15.98772864,.0000761,53.1593,313.4341,70.8005,248.1148,0,U,69825,999,202,-.32652E-2,-.1592477E-1,.76525E-3
STARLINK-37710,2026-154H,2026-07-11T04:00:01.998720,15.98906109,.0000766,53.1592,313.4294,70.6087,250.5082,0,U,69826,999,202,-.32613E-2,-.1602406E-1,.77517E-3
STARLINK-38031,2026-154J,2026-07-11T04:00:01.998720,15.99019708,.0000693,53.1593,313.4250,70.2517,252.8738,0,U,69827,999,202,-.32342E-2,-.1599378E-1,.77342E-3
STARLINK-38001,2026-154K,2026-07-11T04:00:01.998720,15.99135778,.0000716,53.1592,313.4211,72.0083,253.0771,0,U,69828,999,202,-.32107E-2,-.1598187E-1,.77333E-3
STARLINK-37622,2026-154L,2026-07-11T04:00:01.998720,15.99253212,.0000787,53.1591,313.4170,71.1242,255.9539,0,U,69829,999,202,-.31944E-2,-.1600676E-1,.77654E-3
STARLINK-37621,2026-154M,2026-07-11T04:00:01.998720,15.99364570,.0000776,53.1591,313.4134,68.2718,260.5519,0,U,69830,999,202,-.31573E-2,-.1592233E-1,.76994E-3
STARLINK-37918,2026-154N,2026-07-11T04:00:01.998720,15.99481880,.00008,53.1592,313.4097,67.2030,263.3292,0,U,69831,999,202,-.31481E-2,-.1598114E-1,.77618E-3
STARLINK-37887,2026-154P,2026-07-11T04:00:01.998720,15.99590603,.0000737,53.1592,313.4064,71.0183,261.2020,0,U,69832,999,202,-.3113E-2,-.1590183E-1,.77001E-3
STARLINK-37624,2026-154Q,2026-07-11T04:00:01.998720,15.99709796,.000073,53.1591,313.4017,68.0716,266.4634,0,U,69833,999,202,-.3103E-2,-.1595771E-1,.77601E-3
STARLINK-37769,2026-154R,2026-07-11T04:00:01.998720,15.99829459,.0000809,53.1590,313.3972,70.2557,266.4223,0,U,69834,999,202,-.30965E-2,-.1603256E-1,.78375E-3
STARLINK-37247,2026-154S,2026-07-11T04:00:01.998720,15.99947064,.0000748,53.1590,313.3930,63.5389,275.1842,0,U,69835,999,212,-.30883E-2,-.1609676E-1,.79057E-3
STARLINK-37569,2026-154T,2026-07-11T04:00:01.998720,16.00050854,.0000709,53.1589,313.3896,68.4091,271.9744,0,U,69836,999,202,-.30398E-2,-.1594011E-1,.77733E-3
STARLINK-37587,2026-154U,2026-07-11T04:00:01.998720,16.00177077,.0000554,53.1589,313.3843,69.5153,273.3476,0,U,69837,999,199,-.30517E-2,-.1611625E-1,.79434E-3
STARLINK-37590,2026-154V,2026-07-11T04:00:01.998720,16.00284969,.0000541,53.1589,313.3805,73.2776,271.4948,0,U,69838,999,186,-.30241E-2,-.1606996E-1,.79108E-3
STARLINK-37589,2026-154W,2026-07-11T04:00:01.998720,16.00407189,.0000598,53.1588,313.3761,72.6658,274.2347,0,U,69839,999,199,-.3032E-2,-.1622349E-1,.80616E-3
STARLINK-37487,2026-154X,2026-07-11T04:00:01.998720,16.05437192,.0000638,53.1587,313.2575,60.6779,342.6562,0,U,69840,999,199,-.1763E-2,-.1276268E-1,.54975E-3
STARLINK-37433,2026-154Y,2026-07-11T04:00:01.998720,16.05661244,.0000726,53.1586,313.2487,62.1629,345.3845,0,U,69841,999,212,-.17696E-2,-.1298563E-1,.5689E-3
STARLINK-37588,2026-154Z,2026-07-11T04:00:01.998720,16.05913504,.0000697,53.1586,313.2393,61.5820,350.4689,0,U,69842,999,202,-.17832E-2,-.1328745E-1,.59506E-3
STARLINK-37579,2026-154AA,2026-07-11T04:00:01.998720,16.06264248,.0000753,53.1585,313.2266,59.3869,358.6631,0,U,69843,999,202,-.17569E-2,-.1337833E-1,.60503E-3
STARLINK-37584,2026-154AB,2026-07-11T04:00:01.998720,16.06449571,.0000769,53.1587,313.2187,57.8255,3.8917,0,U,69844,999,202,-.17432E-2,-.134275E-1,.61046E-3
STARLINK-37606,2026-154AC,2026-07-11T04:00:01.998720,16.06706847,.0000856,53.1585,313.2096,59.2072,6.8926,0,U,69845,999,202,-.17523E-2,-.1371261E-1,.63636E-3
STARLINK-37603,2026-154AD,2026-07-11T04:00:01.998720,16.07025913,.0000806,53.1587,313.1984,62.8959,8.4600,0,U,69846,999,202,-.17329E-2,-.1383268E-1,.6491E-3
STARLINK-37595,2026-154AE,2026-07-11T04:00:01.998720,16.07200354,.000079,53.1585,313.1902,58.9549,16.1925,0,U,69847,999,202,-.17118E-2,-.1381582E-1,.64902E-3
2026-158A,2026-158A,2026-07-11T04:48:36.135936,14.25146648,.0004947,49.9854,297.2778,288.0407,71.9967,0,U,69972,999,13,.23708E-4,-.104E-5,0
2026-158B,2026-158B,2026-07-11T04:48:51.706944,14.24885391,.0005703,49.9857,297.2778,298.9027,61.1314,0,U,69973,999,13,.22777E-4,-.106E-5,0
CZ-10B R/B,2026-158C,2026-07-10T19:59:18.017088,14.64294088,.0197627,49.9651,298.6353,184.6042,175.3074,0,U,69974,999,8,.6418E-4,.207E-5,0
